{
  "type": "FeatureCollection",
  "features": [
    {
      "type": "Feature",
      "properties": {
        "norad_id": 57400,
        "name": "TIANMU-1 08",
        "group": "weather",
        "lat": -57.2874634544405,
        "lon": -157.09193385673197,
        "alt_km": 493.34357621429353,
        "timestamp": "2025-12-10T16:57:11.277978+00:00",
        "meta_object_name": "TIANMU-1 08",
        "meta_object_id": "2023-101B",
        "meta_epoch": "2025-12-10T09:37:43.089888",
        "meta_mean_motion": 15.27999705,
        "meta_eccentricity": 0.0007571,
        "meta_inclination": 97.2866,
        "meta_ra_of_asc_node": 34.1007,
        "meta_arg_of_pericenter": 90.3396,
        "meta_mean_anomaly": 269.8711,
        "meta_ephemeris_type": 0,
        "meta_classification_type": "U",
        "meta_norad_cat_id": 57400,
        "meta_element_set_no": 999,
        "meta_rev_at_epoch": 13279,
        "meta_bstar": 0.00039173,
        "meta_mean_motion_dot": 0.00010641,
        "meta_mean_motion_ddot": 0,
        "tle_line1": "1 57400U 23101B   25344.40119317  .00010641  00000+0  39173-3 0  9994",
        "tle_line2": "2 57400  97.2866  34.1007 0007571  90.3396 269.8711 15.27999705132791"
      },
      "geometry": {
        "type": "Point",
        "coordinates": [
          -157.09193385673197,
          -57.2874634544405
        ]
      }
    },
    {
      "type": "Feature",
      "properties": {
        "norad_id": 57401,
        "name": "TIANMU-1 09",
        "group": "weather",
        "lat": -49.25540261570118,
        "lon": 42.449967653789415,
        "alt_km": 492.14962121201734,
        "timestamp": "2025-12-10T16:57:11.277988+00:00",
        "meta_object_name": "TIANMU-1 09",
        "meta_object_id": "2023-101C",
        "meta_epoch": "2025-12-10T12:27:21.019392",
        "meta_mean_motion": 15.28029577,
        "meta_eccentricity": 0.0006816,
        "meta_inclination": 97.2822,
        "meta_ra_of_asc_node": 33.7305,
        "meta_arg_of_pericenter": 89.8615,
        "meta_mean_anomaly": 270.3405,
        "meta_ephemeris_type": 0,
        "meta_classification_type": "U",
        "meta_norad_cat_id": 57401,
        "meta_element_set_no": 999,
        "meta_rev_at_epoch": 13281,
        "meta_bstar": 0.00040165,
        "meta_mean_motion_dot": 0.00010921,
        "meta_mean_motion_ddot": 0,
        "tle_line1": "1 57401U 23101C   25344.51899328  .00010921  00000+0  40165-3 0  9998",
        "tle_line2": "2 57401  97.2822  33.7305 0006816  89.8615 270.3405 15.28029577132810"
      },
      "geometry": {
        "type": "Point",
        "coordinates": [
          42.449967653789415,
          -49.25540261570118
        ]
      }
    },
    {
      "type": "Feature",
      "properties": {
        "norad_id": 57402,
        "name": "TIANMU-1 10",
        "group": "weather",
        "lat": 56.83667531695246,
        "lon": -133.94093648658156,
        "alt_km": 471.4005643929122,
        "timestamp": "2025-12-10T16:57:11.277999+00:00",
        "meta_object_name": "TIANMU-1 10",
        "meta_object_id": "2023-101D",
        "meta_epoch": "2025-12-10T10:08:00.118176",
        "meta_mean_motion": 15.28018601,
        "meta_eccentricity": 0.0008561,
        "meta_inclination": 97.2903,
        "meta_ra_of_asc_node": 34.4832,
        "meta_arg_of_pericenter": 90.0989,
        "meta_mean_anomaly": 270.1231,
        "meta_ephemeris_type": 0,
        "meta_classification_type": "U",
        "meta_norad_cat_id": 57402,
        "meta_element_set_no": 999,
        "meta_rev_at_epoch": 13279,
        "meta_bstar": 0.00042912,
        "meta_mean_motion_dot": 0.00011674,
        "meta_mean_motion_ddot": 0,
        "tle_line1": "1 57402U 23101D   25344.42222359  .00011674  00000+0  42912-3 0  9991",
        "tle_line2": "2 57402  97.2903  34.4832 0008561  90.0989 270.1231 15.28018601132799"
      },
      "geometry": {
        "type": "Point",
        "coordinates": [
          -133.94093648658156,
          56.83667531695246
        ]
      }
    },
    {
      "type": "Feature",
      "properties": {
        "norad_id": 57490,
        "name": "FENGYUN 3F",
        "group": "weather",
        "lat": 80.96996104977912,
        "lon": -52.287721703664545,
        "alt_km": 817.7957486068826,
        "timestamp": "2025-12-10T16:57:11.278471+00:00",
        "meta_object_name": "FENGYUN 3F",
        "meta_object_id": "2023-111A",
        "meta_epoch": "2025-12-10T11:26:45.971808",
        "meta_mean_motion": 14.19892711,
        "meta_eccentricity": 6.52e-05,
        "meta_inclination": 98.7087,
        "meta_ra_of_asc_node": 52.8068,
        "meta_arg_of_pericenter": 97.4586,
        "meta_mean_anomaly": 262.6664,
        "meta_ephemeris_type": 0,
        "meta_classification_type": "U",
        "meta_norad_cat_id": 57490,
        "meta_element_set_no": 999,
        "meta_rev_at_epoch": 12208,
        "meta_bstar": 9.1284e-05,
        "meta_mean_motion_dot": 1.5e-06,
        "meta_mean_motion_ddot": 0,
        "tle_line1": "1 57490U 23111A   25344.47692097  .00000150  00000+0  91284-4 0  9998",
        "tle_line2": "2 57490  98.7087  52.8068 0000652  97.4586 262.6664 14.19892711122085"
      },
      "geometry": {
        "type": "Point",
        "coordinates": [
          -52.287721703664545,
          80.96996104977912
        ]
      }
    },
    {
      "type": "Feature",
      "properties": {
        "norad_id": 58584,
        "name": "ARKTIKA-M 2",
        "group": "weather",
        "lat": 49.58379892200821,
        "lon": -41.27062426172904,
        "alt_km": 26542.6658148409,
        "timestamp": "2025-12-10T16:57:11.278484+00:00",
        "meta_object_name": "ARKTIKA-M 2",
        "meta_object_id": "2023-198A",
        "meta_epoch": "2025-12-08T20:10:13.977120",
        "meta_mean_motion": 2.0060476,
        "meta_eccentricity": 0.68646991,
        "meta_inclination": 63.2247,
        "meta_ra_of_asc_node": 175.3152,
        "meta_arg_of_pericenter": 268.1185,
        "meta_mean_anomaly": 18.8267,
        "meta_ephemeris_type": 0,
        "meta_classification_type": "U",
        "meta_norad_cat_id": 58584,
        "meta_element_set_no": 999,
        "meta_rev_at_epoch": 1450,
        "meta_bstar": 0,
        "meta_mean_motion_dot": 1.66e-06,
        "meta_mean_motion_ddot": 0,
        "tle_line1": "1 58584U 23198A   25342.84043955  .00000166  00000+0  00000+0 0  9998",
        "tle_line2": "2 58584  63.2247 175.3152 6864699 268.1185  18.8267  2.00604760 14506"
      },
      "geometry": {
        "type": "Point",
        "coordinates": [
          -41.27062426172904,
          49.58379892200821
        ]
      }
    },
    {
      "type": "Feature",
      "properties": {
        "norad_id": 58645,
        "name": "TIANMU-1 11",
        "group": "weather",
        "lat": -32.971899468714156,
        "lon": 9.17572270213592,
        "alt_km": 492.82861417068034,
        "timestamp": "2025-12-10T16:57:11.278497+00:00",
        "meta_object_name": "TIANMU-1 11",
        "meta_object_id": "2023-205A",
        "meta_epoch": "2025-12-10T12:22:22.438272",
        "meta_mean_motion": 15.24555463,
        "meta_eccentricity": 0.0008086,
        "meta_inclination": 97.361,
        "meta_ra_of_asc_node": 4.1776,
        "meta_arg_of_pericenter": 319.6142,
        "meta_mean_anomaly": 40.4494,
        "meta_ephemeris_type": 0,
        "meta_classification_type": "U",
        "meta_norad_cat_id": 58645,
        "meta_element_set_no": 999,
        "meta_rev_at_epoch": 10875,
        "meta_bstar": 0.00036755,
        "meta_mean_motion_dot": 8.991e-05,
        "meta_mean_motion_ddot": 0,
        "tle_line1": "1 58645U 23205A   25344.51553748  .00008991  00000+0  36755-3 0  9991",
        "tle_line2": "2 58645  97.3610   4.1776 0008086 319.6142  40.4494 15.24555463108755"
      },
      "geometry": {
        "type": "Point",
        "coordinates": [
          9.17572270213592,
          -32.971899468714156
        ]
      }
    },
    {
      "type": "Feature",
      "properties": {
        "norad_id": 58646,
        "name": "TIANMU-1 12",
        "group": "weather",
        "lat": 0.048858686397198856,
        "lon": -175.8223721780274,
        "alt_km": 497.67248408681553,
        "timestamp": "2025-12-10T16:57:11.278507+00:00",
        "meta_object_name": "TIANMU-1 12",
        "meta_object_id": "2023-205B",
        "meta_epoch": "2025-12-10T11:26:24.537696",
        "meta_mean_motion": 15.24435837,
        "meta_eccentricity": 0.0005996,
        "meta_inclination": 97.3598,
        "meta_ra_of_asc_node": 3.9457,
        "meta_arg_of_pericenter": 301.5483,
        "meta_mean_anomaly": 58.5168,
        "meta_ephemeris_type": 0,
        "meta_classification_type": "U",
        "meta_norad_cat_id": 58646,
        "meta_element_set_no": 999,
        "meta_rev_at_epoch": 10873,
        "meta_bstar": 0.00040912,
        "meta_mean_motion_dot": 9.977e-05,
        "meta_mean_motion_ddot": 0,
        "tle_line1": "1 58646U 23205B   25344.47667289  .00009977  00000+0  40912-3 0  9998",
        "tle_line2": "2 58646  97.3598   3.9457 0005996 301.5483  58.5168 15.24435837108737"
      },
      "geometry": {
        "type": "Point",
        "coordinates": [
          -175.8223721780274,
          0.048858686397198856
        ]
      }
    }
  ]
}